GLOBALSTAR M035 [-]     
1 25851U 99037A   23349.89226851 -.00000054  00000+0  37156-3 0  9995
2 25851  51.9913 199.9289 0013698 165.3715 293.4400 11.04528499 35567
GLOBALSTAR M032 [-]     
1 25852U 99037B   23349.45373543 -.00000038  00000+0  92104-3 0  9995
2 25852  51.9969  64.0342 0007898 320.3726  39.6496 11.19046783 73240
GLOBALSTAR M051 [-]     
1 25853U 99037C   23349.99779031 -.00000033  00000+0  94785-3 0  9999
2 25853  51.9804 285.7302 0001732 335.3827  24.6901 11.42193872 69659
GLOBALSTAR M030 [-]     
1 25854U 99037D   23349.67144947 -.00000079  00000+0 -90087-4 0  9990
2 25854  51.9855 127.5577 0005587 131.2633 228.8666 11.55084623 86543
GLOBALSTAR M048 [-]     
1 25872U 99041A   23349.90324946 -.00000068  00000+0  59138-4 0  9999
2 25872  51.9333 199.7499 0012445 319.1134 142.3183 11.33842212 62676
GLOBALSTAR M026 [-]     
1 25873U 99041B   23349.16127112 -.00000081  00000+0 -62159-3 0  9996
2 25873  52.0041 325.3176 0001915  54.7525  30.7092 11.06833328 87584
GLOBALSTAR M043 [-]     
1 25874U 99041C   23349.96903161 -.00000097  00000+0 -86718-3 0  9995
2 25874  51.9410 285.3488 0013610  94.0045 342.7211 11.25674555 61029
GLOBALSTAR M028 [-]     
1 25875U 99041D   23349.42651649 -.00000059  00000+0  26701-3 0  9991
2 25875  51.9647  32.3016 0063135 317.6586  41.9412 12.50546156121392
